SWARM A                 
1 39452U 13067B   26158.41170361  .00011004  00000+0  19055-3 0  9993
2 39452  87.3327  59.8720 0003018  91.6872 268.4734 15.50757205704733
SWARM C                 
1 39453U 13067C   26158.41159181  .00011099  00000+0  19219-3 0  9997
2 39453  87.3327  58.4532 0002986  91.7617 268.3986 15.50759632704690
BRITE-CA1 (TORONTO)     
1 40020U 14033L   26158.25375437  .00000857  00000+0  13644-3 0  9995
2 40020  97.9728 287.3655 0077513 309.3628  50.0729 14.72663724640757
OCO 2                   
1 40059U 14035A   26158.47304784  .00000514  00000+0  12420-3 0  9991
2 40059  98.2015  99.9143 0001479  87.5313 272.6055 14.57103658634637
BRITE-PL2 (HEWELIUSZ)   
1 40119U 14049B   26158.26377524  .00003014  00000+0  28361-3 0  9991
2 40119  97.9087 270.1883 0015105 138.2185 222.0191 14.94560188639962
MMS 1                   
1 40482U 15011A   26158.50004630 -.00000158  00000+0  00000+0 0  9999
2 40482  72.1908 348.8978 8345009 167.1909  30.8649  0.28324471  1389
MMS 2                   
1 40483U 15011B   26158.50004630 -.00000158  00000+0  00000+0 0  9990
2 40483  72.1910 348.9000 8345788 167.1965  30.8533  0.28324465  1381
MMS 3                   
1 40484U 15011C   26158.50004630 -.00000158  00000+0  00000+0 0  9991
2 40484  72.1943 348.9043 8345202 167.1920  30.8439  0.28321494  1381
MMS 4                   
1 40485U 15011D   26158.50004630 -.00000158  00000+0  00000+0 0  9992
2 40485  72.1906 348.9001 8344803 167.1998  30.8322  0.28321459  1388
ASTROSAT                
1 40930U 15052A   26158.20220870  .00001825  00000+0  14026-3 0  9993
2 40930   5.9948 227.2355 0008555 254.2617 105.6567 14.82491593578342
DAMPE                   
1 41173U 15078A   26158.55923073  .00001353  00000+0  48022-4 0  9994
2 41173  97.4561 163.9795 0013624 106.4839 253.7900 15.30760326583079
PISAT                   
1 41784U 16059B   26157.79037896  .00001044  00000+0  18530-3 0  9993
2 41784  97.8178 158.6901 0027691 237.2056 122.6482 14.68965750518219
HXMT (HUIYAN)           
1 42758U 17034A   26158.53047025  .00005166  00000+0  25519-3 0  9991
2 42758  43.0131 236.8110 0030167  83.3579 277.0701 15.18408036496192
FLYING LAPTOP           
1 42831U 17042G   26158.51995716  .00004548  00000+0  35861-3 0  9993
2 42831  97.4653 314.4280 0019052 153.2428 206.9784 15.01083981485007
ZHANGHENG 1-01 (CSES-1) 
1 43194U 18015C   26158.53237627  .00007846  00000+0  35889-3 0  9993
2 43194  97.6869 323.9999 0017198 302.6750  57.2825 15.20689510463178
SALSAT                  
1 46495U 20068K   26157.74488443  .00010129  00000+0  35498-3 0  9991
2 46495  97.8851 160.1753 0009049 349.8452  10.2602 15.29647918313761
IXPE                    
1 49954U 21121A   26158.50004630  .00010636  00000+0  57690-3 0  9993
2 49954   0.2315  30.6945 0007580 293.7571 127.9597 15.10162832  5920
SMILE                   
1 69123U 26109A   26144.65318427 -.00001976  00000+0 -42379-3 0  9994
2 69123  70.0007 229.2745 0009123 259.5159 100.4951 14.57062785   802
